[{"OBJECT_NAME":"PANDORE","OBJECT_ID":"2025-052AL","EPOCH":"2026-03-09T16:13:59.670048","MEAN_MOTION":14.94431732,"ECCENTRICITY":0.0005112,"INCLINATION":97.7015,"RA_OF_ASC_NODE":321.9433,"ARG_OF_PERICENTER":151.9155,"MEAN_ANOMALY":208.2342,"EPHEMERIS_TYPE":0,"CLASSIFICATION_TYPE":"U","NORAD_CAT_ID":63244,"ELEMENT_SET_NO":999,"REV_AT_EPOCH":5374,"BSTAR":0.00033342696,"MEAN_MOTION_DOT":3.538e-5,"MEAN_MOTION_DDOT":0},{"OBJECT_NAME":"AISSAT 2","OBJECT_ID":"2014-037G","EPOCH":"2026-03-09T20:52:41.535552","MEAN_MOTION":14.93076094,"ECCENTRICITY":0.00035743,"INCLINATION":98.3947,"RA_OF_ASC_NODE":35.1738,"ARG_OF_PERICENTER":210.113,"MEAN_ANOMALY":149.9883,"EPHEMERIS_TYPE":0,"CLASSIFICATION_TYPE":"U","NORAD_CAT_ID":40075,"ELEMENT_SET_NO":999,"REV_AT_EPOCH":63192,"BSTAR":0.00031770264,"MEAN_MOTION_DOT":3.245e-5,"MEAN_MOTION_DDOT":0}]
